start=new Date('2022-02-08T00:00:00.000Z').valueOf();
sats=[{"REV_AT_EPOCH":"7955","CLASSIFICATION_TYPE":"U","LAUNCH_DATE":"2020-09-03","CENTER_NAME":"EARTH","SEMIMAJOR_AXIS":"6925.385","MEAN_ANOMALY":"289.8121","COUNTRY_CODE":"US","BSTAR":"-0.00002356900000","OBJECT_ID":"2020-062H","TLE_LINE1":"1 46332U 20062H   22038.50753402 -.00000633  00000-0 -23569-4 0  9992","EPHEMERIS_TYPE":"0","PERIAPSIS":"546.048","RCS_SIZE":"LARGE","TIME_SYSTEM":"UTC","REF_FRAME":"TEME","RA_OF_ASC_NODE":"230.7942","MEAN_MOTION_DDOT":"0.0000000000000","DECAY_DATE":null,"INCLINATION":"53.0544","OBJECT_TYPE":"PAYLOAD","NORAD_CAT_ID":"46332","MEAN_MOTION_DOT":"-0.00000633","EPOCH":"2022-02-07T12:10:50.939328","FILE":"3294379","ECCENTRICITY":"0.00017360","GP_ID":"195481100","ELEMENT_SET_NO":"999","OBJECT_NAME":"STARLINK-1721","TLE_LINE2":"2 46332  53.0544 230.7942 0001736  70.3056 289.8121 15.06388008 79552","SITE":"AFETR","APOAPSIS":"548.453","MEAN_ELEMENT_THEORY":"SGP4","ARG_OF_PERICENTER":"70.3056","PERIOD":"95.593","MEAN_MOTION":"15.06388008"},{"SEMIMAJOR_AXIS":"6925.382","REV_AT_EPOCH":"7955","LAUNCH_DATE":"2020-09-03","CLASSIFICATION_TYPE":"U","CENTER_NAME":"EARTH","BSTAR":"0.00008507300000","COUNTRY_CODE":"US","OBJECT_ID":"2020-062J","TLE_LINE1":"1 46333U 20062J   22038.52227293  .00000986  00000-0  85073-4 0  9996","MEAN_ANOMALY":"283.5643","RCS_SIZE":"LARGE","EPHEMERIS_TYPE":"0","PERIAPSIS":"546.195","REF_FRAME":"TEME","TIME_SYSTEM":"UTC","RA_OF_ASC_NODE":"230.7367","INCLINATION":"53.0538","MEAN_MOTION_DDOT":"0.0000000000000","DECAY_DATE":null,"OBJECT_TYPE":"PAYLOAD","MEAN_MOTION_DOT":"0.00000986","EPOCH":"2022-02-07T12:32:04.381152","FILE":"3294379","NORAD_CAT_ID":"46333","ECCENTRICITY":"0.00015200","GP_ID":"195481351","ELEMENT_SET_NO":"999","SITE":"AFETR","TLE_LINE2":"2 46333  53.0538 230.7367 0001520  76.5515 283.5643 15.06388960 79553","APOAPSIS":"548.300","OBJECT_NAME":"STARLINK-1723","MEAN_ELEMENT_THEORY":"SGP4","PERIOD":"95.593","MEAN_MOTION":"15.06388960","ARG_OF_PERICENTER":"76.5515"},{"COUNTRY_CODE":"US","BSTAR":"0.00017092000000","OBJECT_ID":"2020-062K","TLE_LINE1":"1 46334U 20062K   22038.49735641  .00002265  00000-0  17092-3 0  9991","MEAN_ANOMALY":"294.5900","SEMIMAJOR_AXIS":"6925.370","REV_AT_EPOCH":"7983","CLASSIFICATION_TYPE":"U","LAUNCH_DATE":"2020-09-03","CENTER_NAME":"EARTH","RA_OF_ASC_NODE":"210.8323","RCS_SIZE":"LARGE","EPHEMERIS_TYPE":"0","PERIAPSIS":"546.166","REF_FRAME":"TEME","TIME_SYSTEM":"UTC","MEAN_MOTION_DOT":"0.00002265","EPOCH":"2022-02-07T11:56:11.593824","FILE":"3294379","NORAD_CAT_ID":"46334","ECCENTRICITY":"0.00015440","ELEMENT_SET_NO":"999","GP_ID":"195479599","INCLINATION":"53.0537","DECAY_DATE":null,"MEAN_MOTION_DDOT":"0.0000000000000","OBJECT_TYPE":"PAYLOAD","PERIOD":"95.593","MEAN_MOTION":"15.06392937","ARG_OF_PERICENTER":"65.5250","SITE":"AFETR","TLE_LINE2":"2 46334  53.0537 210.8323 0001544  65.5250 294.5900 15.06392937 79832","APOAPSIS":"548.304","OBJECT_NAME":"STARLINK-1725","MEAN_ELEMENT_THEORY":"SGP4"},{"RA_OF_ASC_NODE":"230.5960","REF_FRAME":"TEME","TIME_SYSTEM":"UTC","RCS_SIZE":"LARGE","PERIAPSIS":"546.113","EPHEMERIS_TYPE":"0","TLE_LINE1":"1 46335U 20062L   22038.55175703 -.00000873  00000-0 -39697-4 0  9997","COUNTRY_CODE":"US","BSTAR":"-0.00003969700000","OBJECT_ID":"2020-062L","MEAN_ANOMALY":"295.5690","SEMIMAJOR_AXIS":"6925.378","LAUNCH_DATE":"2020-09-03","CLASSIFICATION_TYPE":"U","CENTER_NAME":"EARTH","REV_AT_EPOCH":"7956","MEAN_MOTION":"15.06390242","PERIOD":"95.593","ARG_OF_PERICENTER":"64.5468","MEAN_ELEMENT_THEORY":"SGP4","APOAPSIS":"548.374","SITE":"AFETR","TLE_LINE2":"2 46335  53.0548 230.5960 0001632  64.5468 295.5690 15.06390242 79563","OBJECT_NAME":"STARLINK-1727","ELEMENT_SET_NO":"999","GP_ID":"195480349","ECCENTRICITY":"0.00016320","FILE":"3294379","EPOCH":"2022-02-07T13:14:31.807392","MEAN_MOTION_DOT":"-0.00000873","NORAD_CAT_ID":"46335","OBJECT_TYPE":"PAYLOAD","INCLINATION":"53.0548","DECAY_DATE":null,"MEAN_MOTION_DDOT":"0.0000000000000"},{"OBJECT_NAME":"STARLINK-1738","TLE_LINE2":"2 46336  53.0546 210.6483 0001779  74.1882 285.9303 15.06402712 79830","SITE":"AFETR","APOAPSIS":"548.437","MEAN_ELEMENT_THEORY":"SGP4","ARG_OF_PERICENTER":"74.1882","PERIOD":"95.592","MEAN_MOTION":"15.06402712","MEAN_MOTION_DDOT":"0.0000000000000","DECAY_DATE":null,"INCLINATION":"53.0546","OBJECT_TYPE":"PAYLOAD","NORAD_CAT_ID":"46336","MEAN_MOTION_DOT":"0.00000265","EPOCH":"2022-02-07T13:01:15.396384","FILE":"3294379","ECCENTRICITY":"0.00017790","GP_ID":"195480601","ELEMENT_SET_NO":"999","EPHEMERIS_TYPE":"0","PERIAPSIS":"545.973","RCS_SIZE":"LARGE","TIME_SYSTEM":"UTC","REF_FRAME":"TEME","RA_OF_ASC_NODE":"210.6483","REV_AT_EPOCH":"7983","LAUNCH_DATE":"2020-09-03","CLASSIFICATION_TYPE":"U","CENTER_NAME":"EARTH","SEMIMAJOR_AXIS":"6925.340","MEAN_ANOMALY":"285.9303","COUNTRY_CODE":"US","BSTAR":"0.00003668800000","OBJECT_ID":"2020-062M","TLE_LINE1":"1 46336U 20062M   22038.54253931  .00000265  00000-0  36688-4 0  9997"},{"ARG_OF_PERICENTER":"63.7883","PERIOD":"95.592","MEAN_MOTION":"15.06400393","OBJECT_NAME":"STARLINK-1750","SITE":"AFETR","TLE_LINE2":"2 46337  53.0553 209.6667 0001581  63.7883 296.3269 15.06400393 80053","APOAPSIS":"548.307","MEAN_ELEMENT_THEORY":"SGP4","NORAD_CAT_ID":"46337","MEAN_MOTION_DOT":"-0.00000114","FILE":"3294433","EPOCH":"2022-02-07T18:09:05.823360","ECCENTRICITY":"0.00015810","GP_ID":"195485624","ELEMENT_SET_NO":"999","MEAN_MOTION_DDOT":"0.0000000000000","DECAY_DATE":null,"INCLINATION":"53.0553","OBJECT_TYPE":"PAYLOAD","RA_OF_ASC_NODE":"209.6667","EPHEMERIS_TYPE":"0","PERIAPSIS":"546.117","RCS_SIZE":"LARGE","TIME_SYSTEM":"UTC","REF_FRAME":"TEME","MEAN_ANOMALY":"296.3269","COUNTRY_CODE":"US","OBJECT_ID":"2020-062N","BSTAR":"0.00001121400000","TLE_LINE1":"1 46337U 20062N   22038.75631740 -.00000114  00000-0  11214-4 0  9991","REV_AT_EPOCH":"8005","LAUNCH_DATE":"2020-09-03","CENTER_NAME":"EARTH","CLASSIFICATION_TYPE":"U","SEMIMAJOR_AXIS":"6925.347"},{"EPHEMERIS_TYPE":"0","PERIAPSIS":"545.999","RCS_SIZE":"LARGE","TIME_SYSTEM":"UTC","REF_FRAME":"TEME","RA_OF_ASC_NODE":"230.6390","REV_AT_EPOCH":"7955","CENTER_NAME":"EARTH","LAUNCH_DATE":"2020-09-03","CLASSIFICATION_TYPE":"U","SEMIMAJOR_AXIS":"6925.377","MEAN_ANOMALY":"290.6082","BSTAR":"-0.00009461200000","COUNTRY_CODE":"US","OBJECT_ID":"2020-062P","TLE_LINE1":"1 46338U 20062P   22038.54070477 -.00001690  00000-0 -94612-4 0  9997","OBJECT_NAME":"STARLINK-1752","SITE":"AFETR","TLE_LINE2":"2 46338  53.0544 230.6390 0001794  69.5099 290.6082 15.06390757 79555","APOAPSIS":"548.484","MEAN_ELEMENT_THEORY":"SGP4","ARG_OF_PERICENTER":"69.5099","PERIOD":"95.593","MEAN_MOTION":"15.06390757","MEAN_MOTION_DDOT":"0.0000000000000","DECAY_DATE":null,"INCLINATION":"53.0544","OBJECT_TYPE":"PAYLOAD","NORAD_CAT_ID":"46338","MEAN_MOTION_DOT":"-0.00001690","FILE":"3294379","EPOCH":"2022-02-07T12:58:36.892128","ECCENTRICITY":"0.00017940","GP_ID":"195480099","ELEMENT_SET_NO":"999"},{"REV_AT_EPOCH":"7951","CLASSIFICATION_TYPE":"U","LAUNCH_DATE":"2020-09-03","CENTER_NAME":"EARTH","SEMIMAJOR_AXIS":"6925.396","MEAN_ANOMALY":"288.3019","COUNTRY_CODE":"US","OBJECT_ID":"2020-062R","BSTAR":"-0.00010521000000","TLE_LINE1":"1 46340U 20062R   22038.24857328 -.00001848  00000-0 -10521-3 0  9996","TIME_SYSTEM":"UTC","REF_FRAME":"TEME","EPHEMERIS_TYPE":"0","PERIAPSIS":"546.023","RCS_SIZE":"LARGE","RA_OF_ASC_NODE":"231.9465","OBJECT_TYPE":"PAYLOAD","MEAN_MOTION_DDOT":"0.0000000000000","DECAY_DATE":null,"INCLINATION":"53.0544","ECCENTRICITY":"0.00017870","ELEMENT_SET_NO":"999","GP_ID":"195479850","NORAD_CAT_ID":"46340","MEAN_MOTION_DOT":"-0.00001848","EPOCH":"2022-02-07T05:57:56.731392","FILE":"3294379","MEAN_ELEMENT_THEORY":"SGP4","OBJECT_NAME":"STARLINK-1759","TLE_LINE2":"2 46340  53.0544 231.9465 0001787  71.8164 288.3019 15.06384671 79514","SITE":"AFETR","APOAPSIS":"548.498","ARG_OF_PERICENTER":"71.8164","PERIOD":"95.593","MEAN_MOTION":"15.06384671"},{"INCLINATION":"53.0544","DECAY_DATE":null,"MEAN_MOTION_DDOT":"0.0000000000000","OBJECT_TYPE":"PAYLOAD","EPOCH":"2022-02-07T04:31:43.547808","FILE":"3294379","MEAN_MOTION_DOT":"-0.00001593","NORAD_CAT_ID":"46341","ELEMENT_SET_NO":"999","GP_ID":"195481101","ECCENTRICITY":"0.00017050","APOAPSIS":"548.424","SITE":"AFETR","TLE_LINE2":"2 46341  53.0544 212.2204 0001705  74.3448 285.7729 15.06390163 79793","OBJECT_NAME":"STARLINK-1760","MEAN_ELEMENT_THEORY":"SGP4","MEAN_MOTION":"15.06390163","PERIOD":"95.593","ARG_OF_PERICENTER":"74.3448","SEMIMAJOR_AXIS":"6925.379","LAUNCH_DATE":"2020-09-03","CENTER_NAME":"EARTH","CLASSIFICATION_TYPE":"U","REV_AT_EPOCH":"7979","TLE_LINE1":"1 46341U 20062S   22038.18869847 -.00001593  00000-0 -88079-4 0  9990","BSTAR":"-0.00008807900000","COUNTRY_CODE":"US","OBJECT_ID":"2020-062S","MEAN_ANOMALY":"285.7729","RCS_SIZE":"LARGE","PERIAPSIS":"546.063","EPHEMERIS_TYPE":"0","REF_FRAME":"TEME","TIME_SYSTEM":"UTC","RA_OF_ASC_NODE":"212.2204"},{"SEMIMAJOR_AXIS":"6925.379","CLASSIFICATION_TYPE":"U","LAUNCH_DATE":"2020-09-03","CENTER_NAME":"EARTH","REV_AT_EPOCH":"7956","TLE_LINE1":"1 46342U 20062T   22038.56650556 -.00000663  00000-0 -25623-4 0  9991","COUNTRY_CODE":"US","BSTAR":"-0.00002562300000","OBJECT_ID":"2020-062T","MEAN_ANOMALY":"287.3912","REF_FRAME":"TEME","TIME_SYSTEM":"UTC","RCS_SIZE":"LARGE","PERIAPSIS":"546.230","EPHEMERIS_TYPE":"0","RA_OF_ASC_NODE":"230.5246","OBJECT_TYPE":"PAYLOAD","INCLINATION":"53.0531","MEAN_MOTION_DDOT":"0.0000000000000","DECAY_DATE":null,"ELEMENT_SET_NO":"999","GP_ID":"195481352","ECCENTRICITY":"0.00014630","EPOCH":"2022-02-07T13:35:46.080384","FILE":"3294379","MEAN_MOTION_DOT":"-0.00000663","NORAD_CAT_ID":"46342","MEAN_ELEMENT_THEORY":"SGP4","APOAPSIS":"548.257","TLE_LINE2":"2 46342  53.0531 230.5246 0001463  72.7237 287.3912 15.06390203 79560","SITE":"AFETR","OBJECT_NAME":"STARLINK-1762","MEAN_MOTION":"15.06390203","PERIOD":"95.593","ARG_OF_PERICENTER":"72.7237"}];
